59298,STARLINK-31386,2024,94.27,-1.0,+,43.01,Active,0,LEO,USA,USA,Unknown,Unknown,Unknown,1 59298U 24056C   25250.92829696 -.00000505  00000+0 -88317-5 0  9998,2 59298  42.9963 182.8279 0001012  79.4311 280.6655 15.27564413 83207,15.27564413,0.0001012,LEO
59299,STARLINK-31409,2024,94.27,-1.0,+,43.0,Active,0,LEO,USA,USA,Unknown,Unknown,Unknown,1 59299U 24056D   25251.19338889 -.00001414  00000+0 -41885-4 0  9996,2 59299  43.0035 174.4529 0002040 264.8109  95.2510 15.27564159 83445,15.27564159,0.000204,LEO
59300,STARLINK-31489,2024,94.27,-1.0,+,43.0,Active,0,LEO,USA,USA,Unknown,Unknown,Unknown,1 59300U 24056E   25251.17443003 -.00002773  00000+0 -91316-4 0  9995,2 59300  43.0018 181.2309 0001788 281.6274  78.4377 15.27567715 83242,15.27567715,0.0001788,LEO
59301,STARLINK-31502,2024,94.27,-1.0,+,43.0,Active,0,LEO,USA,USA,Unknown,Unknown,Unknown,1 59301U 24056F   25250.51381015 -.00006677  00000+0 -23347-3 0  9992,2 59301  42.9976 177.9407 0000738 275.1743  84.9024 15.27563215 83228,15.27563215,7.38e-05,LEO
59302,STARLINK-31447,2024,94.27,-1.0,+,43.0,Active,0,LEO,USA,USA,Unknown,Unknown,Unknown,1 59302U 24056G   25251.19242832 -.00004771  00000+0 -16403-3 0  9999,2 59302  43.0006 181.3723 0000599  13.0000 347.0867 15.27567123 83247,15.27567123,5.99e-05,LEO
59303,STARLINK-31504,2024,94.27,-1.0,+,43.0,Active,0,LEO,USA,USA,Unknown,Unknown,Unknown,1 59303U 24056H   25251.20013196 -.00002011  00000+0 -63634-4 0  9995,2 59303  43.0020 181.4193 0001268 252.1395 107.9318 15.27557666 83248,15.27557666,0.0001268,LEO
59304,STARLINK-31474,2024,94.27,-1.0,+,43.0,Active,0,LEO,USA,USA,Unknown,Unknown,Unknown,1 59304U 24056J   25251.06775225 -.00000217  00000+0  16410-5 0  9994,2 59304  42.9984 175.2242 0000624 291.8928  68.1857 15.27560709 83304,15.27560709,6.24e-05,LEO
59305,STARLINK-31500,2024,94.27,-1.0,+,43.0,Active,0,LEO,USA,USA,Unknown,Unknown,Unknown,1 59305U 24056K   25251.19624603  .00012491  00000+0  46223-3 0  9991,2 59305  42.9998 181.3922 0001420 203.7933 156.2853 15.27612129 83248,15.27612129,0.000142,LEO
59306,STARLINK-31480,2024,94.27,-1.0,+,43.0,Active,0,LEO,USA,USA,Unknown,Unknown,Unknown,1 59306U 24056L   25251.18213628 -.00006516  00000+0 -22766-3 0  9991,2 59306  43.0041 181.2872 0001109 262.5196  97.5529 15.27555173 83243,15.27555173,0.0001109,LEO
59307,STARLINK-31282,2024,94.27,-1.0,+,43.0,Active,0,LEO,USA,USA,Unknown,Unknown,Unknown,1 59307U 24056M   25251.20397760 -.00001037  00000+0 -28164-4 0  9997,2 59307  43.0019 181.4498 0001371 264.0931  95.9765 15.27578788 83241,15.27578788,0.0001371,LEO
59308,STARLINK-31485,2024,94.27,-1.0,+,43.0,Active,0,LEO,USA,USA,Unknown,Unknown,Unknown,1 59308U 24056N   25251.21166203  .00032238  00000+0  11751-2 0  9992,2 59308  43.0020 181.5054 0000861 257.6101 102.4654 15.27604628 83247,15.27604628,8.61e-05,LEO
59309,STARLINK-31455,2024,94.27,-1.0,+,43.0,Active,0,LEO,USA,USA,Unknown,Unknown,Unknown,1 59309U 24056P   25251.08140943 -.00002358  00000+0 -76234-4 0  9992,2 59309  43.0008 178.7936 0001678 273.7788  86.2872 15.27562471 83260,15.27562471,0.0001678,LEO
59310,STARLINK-31475,2024,94.27,-1.0,+,43.0,Active,0,LEO,USA,USA,Unknown,Unknown,Unknown,1 59310U 24056Q   25251.14421804  .00000041  00000+0  11037-4 0  9994,2 59310  43.0026 178.4072 0001848 289.4919  70.5733 15.27552199 83391,15.27552199,0.0001848,LEO
59312,STARLINK-31445,2024,94.27,-1.0,+,43.0,Active,0,LEO,USA,USA,Unknown,Unknown,Unknown,1 59312U 24056S   25251.13891528 -.00000924  00000+0 -24066-4 0  9997,2 59312  43.0018 188.7427 0001794 293.9154  66.1510 15.27565555 83151,15.27565555,0.0001794,LEO
59313,STARLINK-31495,2024,94.27,-1.0,+,43.0,Active,0,LEO,USA,USA,Unknown,Unknown,Unknown,1 59313U 24056T   25251.16383643 -.00003617  00000+0 -12206-3 0  9999,2 59313  43.0010 174.2187 0000941 291.5575  68.5177 15.27563054 83327,15.27563054,9.41e-05,LEO
59314,STARLINK-31477,2024,94.27,-1.0,+,43.01,Active,0,LEO,USA,USA,Unknown,Unknown,Unknown,1 59314U 24056U   25251.21250221 -.00000038  00000+0  81449-5 0  9991,2 59314  43.0013 173.7264 0001502 275.6157  84.4523 15.27573235 83339,15.27573235,0.0001502,LEO
