[{"OBJECT_NAME":"STARLINK-31386","OBJECT_ID":"2024-056C","EPOCH":"2025-09-07T22:16:44.857344","MEAN_MOTION":15.27564413,"ECCENTRICITY":0.00010122,"INCLINATION":42.9963,"RA_OF_ASC_NODE":182.8279,"ARG_OF_PERICENTER":79.4311,"MEAN_ANOMALY":280.6655,"EPHEMERIS_TYPE":0,"CLASSIFICATION_TYPE":"U","NORAD_CAT_ID":59298,"ELEMENT_SET_NO":999,"REV_AT_EPOCH":8320,"BSTAR":-8.831731e-6,"MEAN_MOTION_DOT":-5.05e-6,"MEAN_MOTION_DDOT":0},{"OBJECT_NAME":"STARLINK-31409","OBJECT_ID":"2024-056D","EPOCH":"2025-09-08T04:38:28.800096","MEAN_MOTION":15.27564159,"ECCENTRICITY":0.00020404,"INCLINATION":43.0035,"RA_OF_ASC_NODE":174.4529,"ARG_OF_PERICENTER":264.8109,"MEAN_ANOMALY":95.251,"EPHEMERIS_TYPE":0,"CLASSIFICATION_TYPE":"U","NORAD_CAT_ID":59299,"ELEMENT_SET_NO":999,"REV_AT_EPOCH":8344,"BSTAR":-4.1885139e-5,"MEAN_MOTION_DOT":-1.414e-5,"MEAN_MOTION_DDOT":0},{"OBJECT_NAME":"STARLINK-31489","OBJECT_ID":"2024-056E","EPOCH":"2025-09-08T04:11:10.754592","MEAN_MOTION":15.27567715,"ECCENTRICITY":0.00017881,"INCLINATION":43.0018,"RA_OF_ASC_NODE":181.2309,"ARG_OF_PERICENTER":281.6274,"MEAN_ANOMALY":78.4377,"EPHEMERIS_TYPE":0,"CLASSIFICATION_TYPE":"U","NORAD_CAT_ID":59300,"ELEMENT_SET_NO":999,"REV_AT_EPOCH":8324,"BSTAR":-9.1315509e-5,"MEAN_MOTION_DOT":-2.773e-5,"MEAN_MOTION_DDOT":0},{"OBJECT_NAME":"STARLINK-31502","OBJECT_ID":"2024-056F","EPOCH":"2025-09-07T12:19:53.196960","MEAN_MOTION":15.27563215,"ECCENTRICITY":7.387e-5,"INCLINATION":42.9976,"RA_OF_ASC_NODE":177.9407,"ARG_OF_PERICENTER":275.1743,"MEAN_ANOMALY":84.9024,"EPHEMERIS_TYPE":0,"CLASSIFICATION_TYPE":"U","NORAD_CAT_ID":59301,"ELEMENT_SET_NO":999,"REV_AT_EPOCH":8322,"BSTAR":-0.00023347433,"MEAN_MOTION_DOT":-6.677e-5,"MEAN_MOTION_DDOT":0},{"OBJECT_NAME":"STARLINK-31447","OBJECT_ID":"2024-056G","EPOCH":"2025-09-08T04:37:05.806848","MEAN_MOTION":15.27567123,"ECCENTRICITY":5.99e-5,"INCLINATION":43.0006,"RA_OF_ASC_NODE":181.3723,"ARG_OF_PERICENTER":13,"MEAN_ANOMALY":347.0867,"EPHEMERIS_TYPE":0,"CLASSIFICATION_TYPE":"U","NORAD_CAT_ID":59302,"ELEMENT_SET_NO":999,"REV_AT_EPOCH":8324,"BSTAR":-0.00016403425,"MEAN_MOTION_DOT":-4.771e-5,"MEAN_MOTION_DDOT":0},{"OBJECT_NAME":"STARLINK-31504","OBJECT_ID":"2024-056H","EPOCH":"2025-09-08T04:48:11.401344","MEAN_MOTION":15.27557666,"ECCENTRICITY":0.0001268,"INCLINATION":43.002,"RA_OF_ASC_NODE":181.4193,"ARG_OF_PERICENTER":252.1395,"MEAN_ANOMALY":107.9318,"EPHEMERIS_TYPE":0,"CLASSIFICATION_TYPE":"U","NORAD_CAT_ID":59303,"ELEMENT_SET_NO":999,"REV_AT_EPOCH":8324,"BSTAR":-6.3634223e-5,"MEAN_MOTION_DOT":-2.011e-5,"MEAN_MOTION_DDOT":0},{"OBJECT_NAME":"STARLINK-31474","OBJECT_ID":"2024-056J","EPOCH":"2025-09-08T01:37:33.794400","MEAN_MOTION":15.27560709,"ECCENTRICITY":6.242e-5,"INCLINATION":42.9984,"RA_OF_ASC_NODE":175.2242,"ARG_OF_PERICENTER":291.8928,"MEAN_ANOMALY":68.1857,"EPHEMERIS_TYPE":0,"CLASSIFICATION_TYPE":"U","NORAD_CAT_ID":59304,"ELEMENT_SET_NO":999,"REV_AT_EPOCH":8330,"BSTAR":1.641006e-6,"MEAN_MOTION_DOT":-2.17e-6,"MEAN_MOTION_DDOT":0},{"OBJECT_NAME":"STARLINK-31500","OBJECT_ID":"2024-056K","EPOCH":"2025-09-08T04:42:35.656992","MEAN_MOTION":15.27612129,"ECCENTRICITY":0.00014208,"INCLINATION":42.9998,"RA_OF_ASC_NODE":181.3922,"ARG_OF_PERICENTER":203.7933,"MEAN_ANOMALY":156.2853,"EPHEMERIS_TYPE":0,"CLASSIFICATION_TYPE":"U","NORAD_CAT_ID":59305,"ELEMENT_SET_NO":999,"REV_AT_EPOCH":8324,"BSTAR":0.00046222701,"MEAN_MOTION_DOT":0.00012491,"MEAN_MOTION_DDOT":0},{"OBJECT_NAME":"STARLINK-31480","OBJECT_ID":"2024-056L","EPOCH":"2025-09-08T04:22:16.574592","MEAN_MOTION":15.27555173,"ECCENTRICITY":0.00011096,"INCLINATION":43.0041,"RA_OF_ASC_NODE":181.2872,"ARG_OF_PERICENTER":262.5196,"MEAN_ANOMALY":97.5529,"EPHEMERIS_TYPE":0,"CLASSIFICATION_TYPE":"U","NORAD_CAT_ID":59306,"ELEMENT_SET_NO":999,"REV_AT_EPOCH":8324,"BSTAR":-0.00022765652,"MEAN_MOTION_DOT":-6.516e-5,"MEAN_MOTION_DDOT":0},{"OBJECT_NAME":"STARLINK-31282","OBJECT_ID":"2024-056M","EPOCH":"2025-09-08T04:53:43.664640","MEAN_MOTION":15.27578788,"ECCENTRICITY":0.0001371,"INCLINATION":43.0019,"RA_OF_ASC_NODE":181.4498,"ARG_OF_PERICENTER":264.0931,"MEAN_ANOMALY":95.9765,"EPHEMERIS_TYPE":0,"CLASSIFICATION_TYPE":"U","NORAD_CAT_ID":59307,"ELEMENT_SET_NO":999,"REV_AT_EPOCH":8324,"BSTAR":-2.8164149e-5,"MEAN_MOTION_DOT":-1.037e-5,"MEAN_MOTION_DDOT":0},{"OBJECT_NAME":"STARLINK-31485","OBJECT_ID":"2024-056N","EPOCH":"2025-09-08T05:04:47.599392","MEAN_MOTION":15.27604628,"ECCENTRICITY":8.611e-5,"INCLINATION":43.002,"RA_OF_ASC_NODE":181.5054,"ARG_OF_PERICENTER":257.6101,"MEAN_ANOMALY":102.4654,"EPHEMERIS_TYPE":0,"CLASSIFICATION_TYPE":"U","NORAD_CAT_ID":59308,"ELEMENT_SET_NO":999,"REV_AT_EPOCH":8324,"BSTAR":0.0011750542,"MEAN_MOTION_DOT":0.00032238,"MEAN_MOTION_DDOT":0},{"OBJECT_NAME":"STARLINK-31455","OBJECT_ID":"2024-056P","EPOCH":"2025-09-08T01:57:13.774752","MEAN_MOTION":15.27562471,"ECCENTRICITY":0.00016788,"INCLINATION":43.0008,"RA_OF_ASC_NODE":178.7936,"ARG_OF_PERICENTER":273.7788,"MEAN_ANOMALY":86.2872,"EPHEMERIS_TYPE":0,"CLASSIFICATION_TYPE":"U","NORAD_CAT_ID":59309,"ELEMENT_SET_NO":999,"REV_AT_EPOCH":8326,"BSTAR":-7.6234246e-5,"MEAN_MOTION_DOT":-2.358e-5,"MEAN_MOTION_DDOT":0},{"OBJECT_NAME":"STARLINK-31475","OBJECT_ID":"2024-056Q","EPOCH":"2025-09-08T03:27:40.438656","MEAN_MOTION":15.27552199,"ECCENTRICITY":0.00018485,"INCLINATION":43.0026,"RA_OF_ASC_NODE":178.4072,"ARG_OF_PERICENTER":289.4919,"MEAN_ANOMALY":70.5733,"EPHEMERIS_TYPE":0,"CLASSIFICATION_TYPE":"U","NORAD_CAT_ID":59310,"ELEMENT_SET_NO":999,"REV_AT_EPOCH":8339,"BSTAR":1.1036892e-5,"MEAN_MOTION_DOT":4.1e-7,"MEAN_MOTION_DDOT":0},{"OBJECT_NAME":"STARLINK-31445","OBJECT_ID":"2024-056S","EPOCH":"2025-09-08T03:20:02.280192","MEAN_MOTION":15.27565555,"ECCENTRICITY":0.00017946,"INCLINATION":43.0018,"RA_OF_ASC_NODE":188.7427,"ARG_OF_PERICENTER":293.9154,"MEAN_ANOMALY":66.151,"EPHEMERIS_TYPE":0,"CLASSIFICATION_TYPE":"U","NORAD_CAT_ID":59312,"ELEMENT_SET_NO":999,"REV_AT_EPOCH":8315,"BSTAR":-2.4066206e-5,"MEAN_MOTION_DOT":-9.24e-6,"MEAN_MOTION_DDOT":0},{"OBJECT_NAME":"STARLINK-31495","OBJECT_ID":"2024-056T","EPOCH":"2025-09-08T03:55:55.467552","MEAN_MOTION":15.27563054,"ECCENTRICITY":9.415e-5,"INCLINATION":43.001,"RA_OF_ASC_NODE":174.2187,"ARG_OF_PERICENTER":291.5575,"MEAN_ANOMALY":68.5177,"EPHEMERIS_TYPE":0,"CLASSIFICATION_TYPE":"U","NORAD_CAT_ID":59313,"ELEMENT_SET_NO":999,"REV_AT_EPOCH":8332,"BSTAR":-0.00012205846,"MEAN_MOTION_DOT":-3.617e-5,"MEAN_MOTION_DDOT":0},{"OBJECT_NAME":"STARLINK-31477","OBJECT_ID":"2024-056U","EPOCH":"2025-09-08T05:06:00.190944","MEAN_MOTION":15.27573235,"ECCENTRICITY":0.0001502,"INCLINATION":43.0013,"RA_OF_ASC_NODE":173.7264,"ARG_OF_PERICENTER":275.6157,"MEAN_ANOMALY":84.4523,"EPHEMERIS_TYPE":0,"CLASSIFICATION_TYPE":"U","NORAD_CAT_ID":59314,"ELEMENT_SET_NO":999,"REV_AT_EPOCH":8333,"BSTAR":8.144902e-6,"MEAN_MOTION_DOT":-3.8e-7,"MEAN_MOTION_DDOT":0}]
